CCSDS_OMM_VERS = 2.0
CREATION_DATE  = 
ORIGINATOR     = 

OBJECT_NAME    = IDEFIX & ARIANE 42P R/B
OBJECT_ID      = 2002-021B
CENTER_NAME    = EARTH
REF_FRAME      = TEME
TIME_SYSTEM    = UTC
MEAN_ELEMENT_THEORY = SGP/SGP4

EPOCH          = 2026-01-27T14:12:52.382880
MEAN_MOTION    = 14.30993816
ECCENTRICITY   = .0011058
INCLINATION    = 98.5831
RA_OF_ASC_NODE = 326.7006
ARG_OF_PERICENTER = 312.9658
MEAN_ANOMALY   = 47.0597

EPHEMERIS_TYPE = 0
CLASSIFICATION_TYPE = U
NORAD_CAT_ID   = 27422
ELEMENT_SET_NO = 999
REV_AT_EPOCH   = 23814
BSTAR          = .22859545E-3
MEAN_MOTION_DOT = .558E-5
MEAN_MOTION_DDOT = 0

CCSDS_OMM_VERS = 2.0
CREATION_DATE  = 
ORIGINATOR     = 

OBJECT_NAME    = AQUA
OBJECT_ID      = 2002-022A
CENTER_NAME    = EARTH
REF_FRAME      = TEME
TIME_SYSTEM    = UTC
MEAN_ELEMENT_THEORY = SGP/SGP4

EPOCH          = 2026-01-27T15:21:01.980864
MEAN_MOTION    = 14.61867354
ECCENTRICITY   = .00018442
INCLINATION    = 98.4102
RA_OF_ASC_NODE = 354.2809
ARG_OF_PERICENTER = 63.7090
MEAN_ANOMALY   = 108.5242

EPHEMERIS_TYPE = 0
CLASSIFICATION_TYPE = U
NORAD_CAT_ID   = 27424
ELEMENT_SET_NO = 999
REV_AT_EPOCH   = 26273
BSTAR          = .37606895E-3
MEAN_MOTION_DOT = .1831E-4
MEAN_MOTION_DDOT = 0

CCSDS_OMM_VERS = 2.0
CREATION_DATE  = 
ORIGINATOR     = 

OBJECT_NAME    = CZ-4B R/B
OBJECT_ID      = 2002-024C
CENTER_NAME    = EARTH
REF_FRAME      = TEME
TIME_SYSTEM    = UTC
MEAN_ELEMENT_THEORY = SGP/SGP4

EPOCH          = 2026-01-27T03:02:07.564416
MEAN_MOTION    = 14.14539470
ECCENTRICITY   = .00508489
INCLINATION    = 98.8929
RA_OF_ASC_NODE = 80.7246
ARG_OF_PERICENTER = 140.2881
MEAN_ANOMALY   = 275.0283

EPHEMERIS_TYPE = 0
CLASSIFICATION_TYPE = U
NORAD_CAT_ID   = 27432
ELEMENT_SET_NO = 999
REV_AT_EPOCH   = 22336
BSTAR          = .71971521E-4
MEAN_MOTION_DOT = .96E-6
MEAN_MOTION_DDOT = 0

CCSDS_OMM_VERS = 2.0
CREATION_DATE  = 
ORIGINATOR     = 

OBJECT_NAME    = MIDORI II (ADEOS-II)
OBJECT_ID      = 2002-056A
CENTER_NAME    = EARTH
REF_FRAME      = TEME
TIME_SYSTEM    = UTC
MEAN_ELEMENT_THEORY = SGP/SGP4

EPOCH          = 2026-01-27T12:00:36.676800
MEAN_MOTION    = 14.29250710
ECCENTRICITY   = .00020171
INCLINATION    = 98.7700
RA_OF_ASC_NODE = 345.7132
ARG_OF_PERICENTER = 100.8979
MEAN_ANOMALY   = 259.2430

EPHEMERIS_TYPE = 0
CLASSIFICATION_TYPE = U
NORAD_CAT_ID   = 27597
ELEMENT_SET_NO = 999
REV_AT_EPOCH   = 20441
BSTAR          = .26075825E-3
MEAN_MOTION_DOT = .618E-5
MEAN_MOTION_DDOT = 0

CCSDS_OMM_VERS = 2.0
CREATION_DATE  = 
ORIGINATOR     = 

OBJECT_NAME    = H-2A R/B
OBJECT_ID      = 2002-056E
CENTER_NAME    = EARTH
REF_FRAME      = TEME
TIME_SYSTEM    = UTC
MEAN_ELEMENT_THEORY = SGP/SGP4

EPOCH          = 2026-01-27T13:02:17.075616
MEAN_MOTION    = 14.33727723
ECCENTRICITY   = .0069074
INCLINATION    = 98.3129
RA_OF_ASC_NODE = 349.4944
ARG_OF_PERICENTER = 284.6065
MEAN_ANOMALY   = 191.4465

EPHEMERIS_TYPE = 0
CLASSIFICATION_TYPE = U
NORAD_CAT_ID   = 27601
ELEMENT_SET_NO = 999
REV_AT_EPOCH   = 20821
BSTAR          = .23819575E-3
MEAN_MOTION_DOT = .637E-5
MEAN_MOTION_DDOT = 0

CCSDS_OMM_VERS = 2.0
CREATION_DATE  = 
ORIGINATOR     = 

OBJECT_NAME    = CZ-4B R/B
OBJECT_ID      = 2003-049C
CENTER_NAME    = EARTH
REF_FRAME      = TEME
TIME_SYSTEM    = UTC
MEAN_ELEMENT_THEORY = SGP/SGP4

EPOCH          = 2026-01-27T12:50:21.434784
MEAN_MOTION    = 14.54969738
ECCENTRICITY   = .00482262
INCLINATION    = 98.6833
RA_OF_ASC_NODE = 20.8410
ARG_OF_PERICENTER = 358.7446
MEAN_ANOMALY   = 1.3621

EPHEMERIS_TYPE = 0
CLASSIFICATION_TYPE = U
NORAD_CAT_ID   = 28059
ELEMENT_SET_NO = 999
REV_AT_EPOCH   = 18061
BSTAR          = .21157773E-3
MEAN_MOTION_DOT = .873E-5
MEAN_MOTION_DDOT = 0

CCSDS_OMM_VERS = 2.0
CREATION_DATE  = 
ORIGINATOR     = 

OBJECT_NAME    = CZ-2C R/B
OBJECT_ID      = 2004-012C
CENTER_NAME    = EARTH
REF_FRAME      = TEME
TIME_SYSTEM    = UTC
MEAN_ELEMENT_THEORY = SGP/SGP4

EPOCH          = 2026-01-27T14:40:58.845216
MEAN_MOTION    = 15.59840616
ECCENTRICITY   = .00168994
INCLINATION    = 97.7339
RA_OF_ASC_NODE = 89.1460
ARG_OF_PERICENTER = 101.7870
MEAN_ANOMALY   = 258.5282

EPHEMERIS_TYPE = 0
CLASSIFICATION_TYPE = U
NORAD_CAT_ID   = 28222
ELEMENT_SET_NO = 999
REV_AT_EPOCH   = 19786
BSTAR          = .72039707E-3
MEAN_MOTION_DOT = .5843E-3
MEAN_MOTION_DDOT = 0

CCSDS_OMM_VERS = 2.0
CREATION_DATE  = 
ORIGINATOR     = 

OBJECT_NAME    = SL-16 R/B
OBJECT_ID      = 2004-021B
CENTER_NAME    = EARTH
REF_FRAME      = TEME
TIME_SYSTEM    = UTC
MEAN_ELEMENT_THEORY = SGP/SGP4

EPOCH          = 2026-01-27T05:33:21.385728
MEAN_MOTION    = 14.14591286
ECCENTRICITY   = .0002634
INCLINATION    = 71.0024
RA_OF_ASC_NODE = 319.4977
ARG_OF_PERICENTER = 114.4446
MEAN_ANOMALY   = 245.6951

EPHEMERIS_TYPE = 0
CLASSIFICATION_TYPE = U
NORAD_CAT_ID   = 28353
ELEMENT_SET_NO = 999
REV_AT_EPOCH   = 11697
BSTAR          = -.764E-4
MEAN_MOTION_DOT = -.194E-5
MEAN_MOTION_DDOT = 0

CCSDS_OMM_VERS = 2.0
CREATION_DATE  = 
ORIGINATOR     = 

OBJECT_NAME    = CZ-4B R/B
OBJECT_ID      = 2004-035C
CENTER_NAME    = EARTH
REF_FRAME      = TEME
TIME_SYSTEM    = UTC
MEAN_ELEMENT_THEORY = SGP/SGP4

EPOCH          = 2026-01-27T12:56:57.818976
MEAN_MOTION    = 15.28272790
ECCENTRICITY   = .00342832
INCLINATION    = 97.3567
RA_OF_ASC_NODE = 62.2878
ARG_OF_PERICENTER = 113.6152
MEAN_ANOMALY   = 246.8694

EPHEMERIS_TYPE = 0
CLASSIFICATION_TYPE = U
NORAD_CAT_ID   = 28415
ELEMENT_SET_NO = 999
REV_AT_EPOCH   = 17362
BSTAR          = .38559921E-3
MEAN_MOTION_DOT = .10737E-3
MEAN_MOTION_DDOT = 0

CCSDS_OMM_VERS = 2.0
CREATION_DATE  = 
ORIGINATOR     = 

OBJECT_NAME    = CZ-2C R/B
OBJECT_ID      = 2004-046B
CENTER_NAME    = EARTH
REF_FRAME      = TEME
TIME_SYSTEM    = UTC
MEAN_ELEMENT_THEORY = SGP/SGP4

EPOCH          = 2026-01-27T09:30:02.318688
MEAN_MOTION    = 14.26975192
ECCENTRICITY   = .01382248
INCLINATION    = 98.1999
RA_OF_ASC_NODE = 304.9427
ARG_OF_PERICENTER = 277.1269
MEAN_ANOMALY   = 81.4214

EPHEMERIS_TYPE = 0
CLASSIFICATION_TYPE = U
NORAD_CAT_ID   = 28480
ELEMENT_SET_NO = 999
REV_AT_EPOCH   = 10261
BSTAR          = .14637925E-3
MEAN_MOTION_DOT = .351E-5
MEAN_MOTION_DDOT = 0

CCSDS_OMM_VERS = 2.0
CREATION_DATE  = 
ORIGINATOR     = 

OBJECT_NAME    = ARIANE 5 R/B
OBJECT_ID      = 2004-049H
CENTER_NAME    = EARTH
REF_FRAME      = TEME
TIME_SYSTEM    = UTC
MEAN_ELEMENT_THEORY = SGP/SGP4

EPOCH          = 2026-01-27T11:15:44.507232
MEAN_MOTION    = 14.85168883
ECCENTRICITY   = .00852914
INCLINATION    = 98.2561
RA_OF_ASC_NODE = 194.4033
ARG_OF_PERICENTER = 124.2360
MEAN_ANOMALY   = 236.6972

EPHEMERIS_TYPE = 0
CLASSIFICATION_TYPE = U
NORAD_CAT_ID   = 28499
ELEMENT_SET_NO = 999
REV_AT_EPOCH   = 13967
BSTAR          = .22394401E-3
MEAN_MOTION_DOT = .1984E-4
MEAN_MOTION_DDOT = 0

CCSDS_OMM_VERS = 2.0
CREATION_DATE  = 
ORIGINATOR     = 

OBJECT_NAME    = CZ-2D R/B
OBJECT_ID      = 2005-024B
CENTER_NAME    = EARTH
REF_FRAME      = TEME
TIME_SYSTEM    = UTC
MEAN_ELEMENT_THEORY = SGP/SGP4

EPOCH          = 2026-01-27T11:35:38.084352
MEAN_MOTION    = 15.56532901
ECCENTRICITY   = .00061245
INCLINATION    = 97.3629
RA_OF_ASC_NODE = 41.2338
ARG_OF_PERICENTER = 148.1068
MEAN_ANOMALY   = 212.0559

EPHEMERIS_TYPE = 0
CLASSIFICATION_TYPE = U
NORAD_CAT_ID   = 28738
ELEMENT_SET_NO = 999
REV_AT_EPOCH   = 13336
BSTAR          = .63824905E-3
MEAN_MOTION_DOT = .45385E-3
MEAN_MOTION_DDOT = 0

